QIANFAN-105             
1 66047U 25233Q   25352.15050170 -.02097593  00000+0 -17527+1 0  9992
2 66047  88.9953  61.5422 0017367  33.3508 326.8757 13.92524987  8740
QIANFAN-106             
1 66048U 25233R   25352.00469511 -.02032912  00000+0 -23095+1 0  9991
2 66048  88.9944  61.5905 0013730  12.5563 347.5941 13.74265889  8701
QIANFAN-107             
1 66049U 25233S   25352.29545020  .00000046  00000+0  34687-4 0  9995
2 66049  88.9959  61.5618 0015819  31.9319 328.2802 13.74652396  8742
QIANFAN-108             
1 66050U 25233T   25352.14728118 -.02057537  00000+0 -23587+1 0  9996
2 66050  88.9945  61.5761 0010967  31.5340 328.6479 13.73784131  8721
